NORAD_CAT_ID,OBJECT_NAME,OBJECT_TYPE,EPOCH,MEAN_MOTION,ECCENTRICITY,INCLINATION,RA_OF_ASC_NODE,ARG_OF_PERICENTER,MEAN_ANOMALY,BSTAR,MEAN_MOTION_DOT,MEAN_MOTION_DDOT,TLE_LINE0,TLE_LINE1,TLE_LINE2,SEMIMAJOR_AXIS,PERIOD,APOGEE,PERIGEE,DECAYED
53547.0,STARLINK-4474,PAYLOAD,2022-11-08 20:41:19,15.08846106,0.0001355,53.215,126.6694,81.4446,278.67,0.00019965,2.891e-05,0.0,0 STARLINK-4474,1 53547U 22101W   22312.86202662  .00002891  00000-0  19965-3 0  9995,2 53547  53.2150 126.6694 0001355  81.4446 278.6700 15.08846106 13279,6917.861999999999,95.437,540.664,538.789,0.0
53547.0,STARLINK-4474,PAYLOAD,2022-11-09 14:10:33,15.08846631,0.0001396999999999,53.215,123.3981,84.51299999999998,275.6022,8.664700000000001e-05,1.092e-05,0.0,0 STARLINK-4474,1 53547U 22101W   22313.59066724  .00001092  00000-0  86647-4 0  9997,2 53547  53.2150 123.3981 0001397  84.5130 275.6022 15.08846631 13381,6917.86,95.437,540.692,538.759,0.0
53547.0,STARLINK-4474,PAYLOAD,2022-11-09 20:32:06,15.08843162,3.88e-05,53.2181,122.2091,34.5802,325.5215,3.0322e-05,1.95e-06,0.0,0 STARLINK-4474,1 53547U 22101W   22313.85562918  .00000195  00000-0  30322-4 0  9994,2 53547  53.2181 122.2091 0000388  34.5802 325.5215 15.08843162 13425,6917.871,95.437,540.004,539.467,0.0
53547.0,STARLINK-4474,PAYLOAD,2022-11-09 23:42:53,15.0883535,0.0001131,53.2155,121.6134,84.8875,275.2246,-5.0792e-05,-1.096e-05,0.0,0 STARLINK-4474,1 53547U 22101W   22313.98811785 -.00001096  00000-0 -50792-4 0  9993,2 53547  53.2155 121.6134 0001131  84.8875 275.2246 15.08835350 12774,6917.895,95.438,540.5419999999998,538.977,0.0
53547.0,STARLINK-4474,PAYLOAD,2022-11-10 10:50:35,15.08841399,0.0001437,53.2152,119.532,83.8762,276.2393,-5.9836e-05,-1.24e-05,0.0,0 STARLINK-4474,1 53547U 22101W   22314.45179535 -.00001240  00000-0 -59836-4 0  9995,2 53547  53.2152 119.5320 0001437  83.8762 276.2393 15.08841399 13514,6917.876,95.437,540.735,538.747,0.0
53547.0,STARLINK-4474,PAYLOAD,2022-11-10 18:47:30,15.08845424,0.0001401,53.2152,118.0451,83.6759,276.4392,-6.6957e-05,-1.354e-05,0.0,0 STARLINK-4474,1 53547U 22101W   22314.78299186 -.00001354  00000-0 -66957-4 0  9994,2 53547  53.2152 118.0451 0001401  83.6759 276.4392 15.08845424 12892,6917.864000000001,95.437,540.698,538.76,0.0
53547.0,STARLINK-4474,PAYLOAD,2022-11-11 10:41:21,15.08846962,0.0001249,53.2157,115.0722,72.8547,287.2582,-1.2962e-05,-4.94e-06,0.0,0 STARLINK-4474,1 53547U 22101W   22315.44538539 -.00000494  00000-0 -12962-4 0  9997,2 53547  53.2157 115.0722 0001249  72.8547 287.2582 15.08846962 13665,6917.859,95.437,540.5880000000002,538.86,0.0
53547.0,STARLINK-4474,PAYLOAD,2022-11-11 17:02:53,15.08842652,0.0001335,53.2153,113.8822,78.3194,281.7948,0.0001597,2.255e-05,0.0,0 STARLINK-4474,1 53547U 22101W   22315.71034088  .00002255  00000-0  15970-3 0  9993,2 53547  53.2153 113.8822 0001335  78.3194 281.7948 15.08842652 13031,6917.871999999999,95.437,540.661,538.814,0.0
53547.0,STARLINK-4474,PAYLOAD,2022-11-11 20:13:39,15.08844421,0.0001353,53.2152,113.2875,78.3653,281.7491,0.00017044,2.426e-05,0.0,0 STARLINK-4474,1 53547U 22101W   22315.84281926  .00002426  00000-0  17044-3 0  9996,2 53547  53.2152 113.2875 0001353  78.3653 281.7491 15.08844421 13727,6917.8669999999975,95.437,540.668,538.7959999999998,0.0
53547.0,STARLINK-4474,PAYLOAD,2022-11-12 04:10:35,15.08844484,0.0001369,53.2152,111.8006,78.0379,282.0767,0.00012864,1.76e-05,0.0,0 STARLINK-4474,1 53547U 22101W   22316.17401979  .00001760  00000-0  12864-3 0  9990,2 53547  53.2152 111.8006 0001369  78.0379 282.0767 15.08844484 13770,6917.8669999999975,95.437,540.679,538.785,0.0
53547.0,STARLINK-4474,PAYLOAD,2022-11-12 16:53:40,15.08845174,0.0001382,53.2152,109.4213,80.077,280.0378,8.4484e-05,1.057e-05,0.0,0 STARLINK-4474,1 53547U 22101W   22316.70393883  .00001057  00000-0  84484-4 0  9990,2 53547  53.2152 109.4213 0001382  80.0770 280.0378 15.08845174 13858,6917.865,95.437,540.686,538.774,0.0
53547.0,STARLINK-4474,PAYLOAD,2022-11-12 21:39:49,15.08846579,0.0001377,53.2151,108.529,79.5184,280.5964,6.539399999999999e-05,7.53e-06,0.0,0 STARLINK-4474,1 53547U 22101W   22316.90265733  .00000753  00000-0  65394-4 0  9995,2 53547  53.2151 108.5290 0001377  79.5184 280.5964 15.08846579 13214,6917.86,95.437,540.678,538.773,0.0
53547.0,STARLINK-4474,PAYLOAD,2022-11-13 10:22:54,15.0884048,0.0001424,53.2149,106.1497,81.8399,278.2754,3.2899999999999987e-05,2.36e-06,0.0,0 STARLINK-4474,1 53547U 22101W   22317.43258004  .00000236  00000-0  32900-4 0  9990,2 53547  53.2149 106.1497 0001424  81.8399 278.2754 15.08840480 13295,6917.879,95.438,540.729,538.759,0.0
53547.0,STARLINK-4474,PAYLOAD,2022-11-13 16:44:28,15.088353,0.0001322,53.2155,104.9608,76.90100000000002,283.213,-0.00012747,-2.316e-05,0.0,0 STARLINK-4474,1 53547U 22101W   22317.69754856 -.00002316  00000-0 -12747-3 0  9993,2 53547  53.2155 104.9608 0001322  76.9010 283.2130 15.08835300 13338,6917.895,95.438,540.674,538.845,0.0
53547.0,STARLINK-4474,PAYLOAD,2022-11-14 08:38:19,15.08833093,0.0001256,53.2158,101.9855,75.0309,285.0822,-5.8468e-05,-1.218e-05,0.0,0 STARLINK-4474,1 53547U 22101W   22318.35994804 -.00001218  00000-0 -58468-4 0  9997,2 53547  53.2158 101.9855 0001256  75.0309 285.0822 15.08833093 14100,6917.901999999999,95.438,540.635,538.898,0.0
53547.0,STARLINK-4474,PAYLOAD,2022-11-14 18:10:37,15.08842812,0.0001252,53.2157,100.2027,73.3293,286.7836,-1.5867e-05,-5.400000000000002e-06,0.0,0 STARLINK-4474,1 53547U 22101W   22318.75738100 -.00000540  00000-0 -15867-4 0  9999,2 53547  53.2157 100.2027 0001252  73.3293 286.7836 15.08842812 13494,6917.871999999999,95.437,540.6030000000002,538.871,0.0
53547.0,STARLINK-4474,PAYLOAD,2022-11-15 13:15:15,15.08830394,0.0001269,53.2157,96.634,72.3618,287.7513,0.00011053,1.471e-05,0.0,0 STARLINK-4474,1 53547U 22101W   22319.55226476  .00001471  00000-0  11053-3 0  9990,2 53547  53.2157  96.6340 0001269  72.3618 287.7513 15.08830394 13617,6917.91,95.438,540.653,538.8969999999998,0.0
53547.0,STARLINK-4474,PAYLOAD,2022-11-15 16:26:02,15.08830272,0.0001276,53.2157,96.0393,72.2345,287.8786,0.00010609,1.401e-05,0.0,0 STARLINK-4474,1 53547U 22101W   22319.68474593  .00001401  00000-0  10609-3 0  9998,2 53547  53.2157  96.0393 0001276  72.2345 287.8786 15.08830272 14308,6917.91,95.438,540.658,538.8919999999998,0.0
53547.0,STARLINK-4474,PAYLOAD,2022-11-16 09:55:16,15.08836964,0.0001322,53.2162,92.7679,74.9809,285.1329,8.1487e-06,-1.58e-06,0.0,0 STARLINK-4474,1 53547U 22101W   22320.41338831 -.00000158  00000-0  81487-5 0  9998,2 53547  53.2162  92.7679 0001322  74.9809 285.1329 15.08836964 14410,6917.89,95.438,540.669,538.84,0.0
53547.0,STARLINK-4474,PAYLOAD,2022-11-16 16:16:49,15.08835658,0.0001315999999999,53.2162,91.5785,72.4531,287.6605,-4.4838e-06,-3.59e-06,0.0,0 STARLINK-4474,1 53547U 22101W   22320.67835005 -.00000359  00000-0 -44838-5 0  9994,2 53547  53.2162  91.5785 0001316  72.4531 287.6605 15.08835658 13785,6917.894,95.438,540.669,538.8480000000002,0.0
53547.0,STARLINK-4474,PAYLOAD,2022-11-17 09:46:03,15.08834867,0.0001396999999999,53.2166,88.3076,71.4386,288.6758,2.083e-05,4.4e-07,0.0,0 STARLINK-4474,1 53547U 22101W   22321.40699053  .00000044  00000-0  20830-4 0  9991,2 53547  53.2166  88.3076 0001397  71.4386 288.6758 15.08834867 14560,6917.896,95.438,540.7280000000002,538.795,0.0
53547.0,STARLINK-4474,PAYLOAD,2022-11-17 14:32:13,15.08832363,0.0001372,53.2162,87.4154,70.333,289.781,-3.9055e-06,-3.5000000000000016e-06,0.0,0 STARLINK-4474,1 53547U 22101W   22321.60571325 -.00000350  00000-0 -39055-5 0  9996,2 53547  53.2162  87.4154 0001372  70.3330 289.7810 15.08832363 14596,6917.904,95.438,540.7180000000002,538.82,0.0
53547.0,STARLINK-4474,PAYLOAD,2022-11-18 08:01:27,15.0883827,0.0001353,53.2163,84.1442,68.5611,291.5525,5.5455e-05,5.95e-06,0.0,0 STARLINK-4474,1 53547U 22101W   22322.33434879  .00000595  00000-0  55455-4 0  9999,2 53547  53.2163  84.1442 0001353  68.5611 291.5525 15.08838270 14037,6917.886,95.438,540.687,538.815,0.0
53547.0,STARLINK-4474,PAYLOAD,2022-11-18 14:23:00,15.08838812,0.0001359,53.2163,82.9548,68.7444,291.3693,5.7558e-05,6.28e-06,0.0,0 STARLINK-4474,1 53547U 22101W   22322.59930900  .00000628  00000-0  57558-4 0  9996,2 53547  53.2163  82.9548 0001359  68.7444 291.3693 15.08838812 14746,6917.884,95.438,540.689,538.809,0.0
53547.0,STARLINK-4474,PAYLOAD,2022-11-19 07:52:14,15.08834112,9.84e-05,53.2169,79.6824,68.2461,291.8636,0.00010161,1.329e-05,0.0,0 STARLINK-4474,1 53547U 22101W   22323.32795113  .00001329  00000-0  10161-3 0  9990,2 53547  53.2169  79.6824 0000984  68.2461 291.8636 15.08834112 14852,6917.898,95.438,540.444,539.0830000000002,0.0
53547.0,STARLINK-4474,PAYLOAD,2022-11-19 14:13:46,15.08843509,0.0001052,53.2161,78.4933,67.283,292.8273,0.0001449,2.019e-05,0.0,0 STARLINK-4474,1 53547U 22101W   22323.59290352  .00002019  00000-0  14490-3 0  9990,2 53547  53.2161  78.4933 0001052  67.2830 292.8273 15.08843509 14227,6917.87,95.437,540.462,539.007,0.0
53547.0,STARLINK-4474,PAYLOAD,2022-11-20 14:04:34,15.08839782,0.0001484,53.2158,74.0346,59.9771,300.1369,9.585e-05,1.238e-05,0.0,0 STARLINK-4474,1 53547U 22101W   22324.58650670  .00001238  00000-0  95850-4 0  9995,2 53547  53.2158  74.0346 0001484  59.9771 300.1369 15.08839782 15042,6917.880999999999,95.438,540.773,538.719,0.0
53547.0,STARLINK-4474,PAYLOAD,2022-11-20 17:15:20,15.08836197,0.0001565999999999,53.2166,73.4413,58.4942,301.6203,7.1065e-05,8.43e-06,0.0,0 STARLINK-4474,1 53547U 22101W   22324.71899028  .00000843  00000-0  71065-4 0  9995,2 53547  53.2166  73.4413 0001566  58.4942 301.6203 15.08836197 14391,6917.892,95.438,540.84,538.674,0.0
53547.0,STARLINK-4474,PAYLOAD,2022-11-21 07:33:49,15.08835079,0.0001411,53.2156,70.7639,62.1855,297.928,-7.5978e-05,-1.497e-05,0.0,0 STARLINK-4474,1 53547U 22101W   22325.31515670 -.00001497  00000-0 -75978-4 0  9995,2 53547  53.2156  70.7639 0001411  62.1855 297.9280 15.08835079 14484,6917.895,95.438,540.737,538.784,0.0
